{
  "type": "FeatureCollection",
  "features": [
    {
      "type": "Feature",
      "properties": {
        "norad_id": 37867,
        "name": "COSMOS 2476 (744)",
        "group": "glo-ops",
        "lat": 22.98944198119332,
        "lon": 90.50838803729683,
        "alt_km": 19181.20818105481,
        "timestamp": "2025-12-12T05:47:29.031999+00:00",
        "meta_object_name": "COSMOS 2476 (744)",
        "meta_object_id": "2011-064A",
        "meta_epoch": "2025-12-10T19:30:14.482368",
        "meta_mean_motion": 2.13101258,
        "meta_eccentricity": 0.00238922,
        "meta_inclination": 65.1614,
        "meta_ra_of_asc_node": 79.2364,
        "meta_arg_of_pericenter": 233.6597,
        "meta_mean_anomaly": 135.7131,
        "meta_ephemeris_type": 0,
        "meta_classification_type": "U",
        "meta_norad_cat_id": 37867,
        "meta_element_set_no": 999,
        "meta_rev_at_epoch": 10975,
        "meta_bstar": 0,
        "meta_mean_motion_dot": -2.4e-07,
        "meta_mean_motion_ddot": 0,
        "tle_line1": "1 37867U 11064A   25344.81266762 -.00000024  00000+0  00000+0 0  9994",
        "tle_line2": "2 37867  65.1614  79.2364 0023892 233.6597 135.7131  2.13101258109752"
      },
      "geometry": {
        "type": "Point",
        "coordinates": [
          90.50838803729683,
          22.98944198119332
        ]
      }
    },
    {
      "type": "Feature",
      "properties": {
        "norad_id": 37868,
        "name": "COSMOS 2477 (745)",
        "group": "glo-ops",
        "lat": -23.649236683292074,
        "lon": -89.04798468049506,
        "alt_km": 19085.79110419014,
        "timestamp": "2025-12-12T05:47:29.032011+00:00",
        "meta_object_name": "COSMOS 2477 (745)",
        "meta_object_id": "2011-064B",
        "meta_epoch": "2025-12-11T11:00:26.818272",
        "meta_mean_motion": 2.13102675,
        "meta_eccentricity": 0.0021098,
        "meta_inclination": 65.1682,
        "meta_ra_of_asc_node": 79.2924,
        "meta_arg_of_pericenter": 234.4419,
        "meta_mean_anomaly": 91.4232,
        "meta_ephemeris_type": 0,
        "meta_classification_type": "U",
        "meta_norad_cat_id": 37868,
        "meta_element_set_no": 999,
        "meta_rev_at_epoch": 10975,
        "meta_bstar": 0,
        "meta_mean_motion_dot": -3e-07,
        "meta_mean_motion_ddot": 0,
        "tle_line1": "1 37868U 11064B   25345.45864373 -.00000030  00000+0  00000+0 0  9995",
        "tle_line2": "2 37868  65.1682  79.2924 0021098 234.4419  91.4232  2.13102675109752"
      },
      "geometry": {
        "type": "Point",
        "coordinates": [
          -89.04798468049506,
          -23.649236683292074
        ]
      }
    },
    {
      "type": "Feature",
      "properties": {
        "norad_id": 37869,
        "name": "COSMOS 2475 (743)",
        "group": "glo-ops",
        "lat": 16.296200801530883,
        "lon": -108.47535861953959,
        "alt_km": 19123.796477276097,
        "timestamp": "2025-12-12T05:47:29.032022+00:00",
        "meta_object_name": "COSMOS 2475 (743)",
        "meta_object_id": "2011-064C",
        "meta_epoch": "2025-12-09T06:02:05.700768",
        "meta_mean_motion": 2.13101306,
        "meta_eccentricity": 0.0026081,
        "meta_inclination": 65.1742,
        "meta_ra_of_asc_node": 79.3871,
        "meta_arg_of_pericenter": 248.2695,
        "meta_mean_anomaly": 140.2782,
        "meta_ephemeris_type": 0,
        "meta_classification_type": "U",
        "meta_norad_cat_id": 37869,
        "meta_element_set_no": 999,
        "meta_rev_at_epoch": 10972,
        "meta_bstar": 0,
        "meta_mean_motion_dot": -1.3e-07,
        "meta_mean_motion_ddot": 0,
        "tle_line1": "1 37869U 11064C   25343.25145487 -.00000013  00000+0  00000+0 0  9991",
        "tle_line2": "2 37869  65.1742  79.3871 0026081 248.2695 140.2782  2.13101306109728"
      },
      "geometry": {
        "type": "Point",
        "coordinates": [
          -108.47535861953959,
          16.296200801530883
        ]
      }
    },
    {
      "type": "Feature",
      "properties": {
        "norad_id": 39155,
        "name": "COSMOS 2485 (747)",
        "group": "glo-ops",
        "lat": 60.655242181627415,
        "lon": 134.67057237698307,
        "alt_km": 19180.255565537733,
        "timestamp": "2025-12-12T05:47:29.032034+00:00",
        "meta_object_name": "COSMOS 2485 (747)",
        "meta_object_id": "2013-019A",
        "meta_epoch": "2025-12-10T17:41:35.437344",
        "meta_mean_motion": 2.13102878,
        "meta_eccentricity": 0.00245732,
        "meta_inclination": 65.3124,
        "meta_ra_of_asc_node": 79.9346,
        "meta_arg_of_pericenter": 229.2052,
        "meta_mean_anomaly": 130.5984,
        "meta_ephemeris_type": 0,
        "meta_classification_type": "U",
        "meta_norad_cat_id": 39155,
        "meta_element_set_no": 999,
        "meta_rev_at_epoch": 9826,
        "meta_bstar": 0,
        "meta_mean_motion_dot": -2.2e-07,
        "meta_mean_motion_ddot": 0,
        "tle_line1": "1 39155U 13019A   25344.73721571 -.00000022  00000+0  00000+0 0  9991",
        "tle_line2": "2 39155  65.3124  79.9346 0024573 229.2052 130.5984  2.13102878 98264"
      },
      "geometry": {
        "type": "Point",
        "coordinates": [
          134.67057237698307,
          60.655242181627415
        ]
      }
    },
    {
      "type": "Feature",
      "properties": {
        "norad_id": 39620,
        "name": "COSMOS 2492 (754)",
        "group": "glo-ops",
        "lat": 61.11642468133786,
        "lon": 84.18265621430012,
        "alt_km": 19155.87178011707,
        "timestamp": "2025-12-12T05:47:29.032046+00:00",
        "meta_object_name": "COSMOS 2492 (754)",
        "meta_object_id": "2014-012A",
        "meta_epoch": "2025-12-11T15:13:27.039936",
        "meta_mean_motion": 2.13102949,
        "meta_eccentricity": 0.00142133,
        "meta_inclination": 65.4084,
        "meta_ra_of_asc_node": 320.3085,
        "meta_arg_of_pericenter": 311.3676,
        "meta_mean_anomaly": 48.5095,
        "meta_ephemeris_type": 0,
        "meta_classification_type": "U",
        "meta_norad_cat_id": 39620,
        "meta_element_set_no": 999,
        "meta_rev_at_epoch": 9124,
        "meta_bstar": 0,
        "meta_mean_motion_dot": -5.3e-07,
        "meta_mean_motion_ddot": 0,
        "tle_line1": "1 39620U 14012A   25345.63434074 -.00000053  00000+0  00000+0 0  9995",
        "tle_line2": "2 39620  65.4084 320.3085 0014213 311.3676  48.5095  2.13102949 91246"
      },
      "geometry": {
        "type": "Point",
        "coordinates": [
          84.18265621430012,
          61.11642468133786
        ]
      }
    },
    {
      "type": "Feature",
      "properties": {
        "norad_id": 40001,
        "name": "COSMOS 2500 (755)",
        "group": "glo-ops",
        "lat": -23.867454386727125,
        "lon": -51.6835957253169,
        "alt_km": 19141.782696555336,
        "timestamp": "2025-12-12T05:47:29.032057+00:00",
        "meta_object_name": "COSMOS 2500 (755)",
        "meta_object_id": "2014-032A",
        "meta_epoch": "2025-12-09T11:02:48.490944",
        "meta_mean_motion": 2.13105796,
        "meta_eccentricity": 0.000831,
        "meta_inclination": 65.3451,
        "meta_ra_of_asc_node": 320.1442,
        "meta_arg_of_pericenter": 219.1348,
        "meta_mean_anomaly": 140.802,
        "meta_ephemeris_type": 0,
        "meta_classification_type": "U",
        "meta_norad_cat_id": 40001,
        "meta_element_set_no": 999,
        "meta_rev_at_epoch": 8941,
        "meta_bstar": 0,
        "meta_mean_motion_dot": -4.9e-07,
        "meta_mean_motion_ddot": 0,
        "tle_line1": "1 40001U 14032A   25343.46028346 -.00000049  00000+0  00000+0 0  9997",
        "tle_line2": "2 40001  65.3451 320.1442 0008310 219.1348 140.8020  2.13105796 89418"
      },
      "geometry": {
        "type": "Point",
        "coordinates": [
          -51.6835957253169,
          -23.867454386727125
        ]
      }
    },
    {
      "type": "Feature",
      "properties": {
        "norad_id": 40315,
        "name": "COSMOS 2501 (702K)",
        "group": "glo-ops",
        "lat": 40.103371834791595,
        "lon": -7.86692491086887,
        "alt_km": 19108.083590416307,
        "timestamp": "2025-12-12T05:47:29.032068+00:00",
        "meta_object_name": "COSMOS 2501 (702K)",
        "meta_object_id": "2014-075A",
        "meta_epoch": "2025-12-07T20:13:51.362112",
        "meta_mean_motion": 2.13101338,
        "meta_eccentricity": 0.00201356,
        "meta_inclination": 63.6139,
        "meta_ra_of_asc_node": 196.9947,
        "meta_arg_of_pericenter": 204.4913,
        "meta_mean_anomaly": 155.4908,
        "meta_ephemeris_type": 0,
        "meta_classification_type": "U",
        "meta_norad_cat_id": 40315,
        "meta_element_set_no": 999,
        "meta_rev_at_epoch": 8577,
        "meta_bstar": 0,
        "meta_mean_motion_dot": 5.4e-07,
        "meta_mean_motion_ddot": 0,
        "tle_line1": "1 40315U 14075A   25341.84295558  .00000054  00000+0  00000+0 0  9998",
        "tle_line2": "2 40315  63.6139 196.9947 0020135 204.4913 155.4908  2.13101338 85773"
      },
      "geometry": {
        "type": "Point",
        "coordinates": [
          -7.86692491086887,
          40.103371834791595
        ]
      }
    }
  ]
}